NORAD_CAT_ID,OBJECT_NAME,OBJECT_TYPE,EPOCH,MEAN_MOTION,ECCENTRICITY,INCLINATION,RA_OF_ASC_NODE,ARG_OF_PERICENTER,MEAN_ANOMALY,BSTAR,MEAN_MOTION_DOT,MEAN_MOTION_DDOT,TLE_LINE0,TLE_LINE1,TLE_LINE2,SEMIMAJOR_AXIS,PERIOD,APOGEE,PERIGEE,DECAYED
53537.0,STARLINK-4120,PAYLOAD,2023-10-29 19:30:57,15.08844175,0.0001763,53.2178,343.2085,81.3813,278.7379,0.00037805,5.734e-05,0.0,0 STARLINK-4120,1 53537U 22101L   23302.81316506  .00005734  00000-0  37805-3 0  9994,2 53537  53.2178 343.2085 0001763  81.3813 278.7379 15.08844175 66050,6917.868,95.437,540.952,538.513,0.0
53537.0,STARLINK-4120,PAYLOAD,2023-10-30 03:27:53,15.08842963,0.000221,53.2177,341.7225,83.8471,276.2773,0.00020858,3.033e-05,0.0,0 STARLINK-4120,1 53537U 22101L   23303.14436806  .00003033  00000-0  20858-3 0  9997,2 53537  53.2177 341.7225 0002210  83.8471 276.2773 15.08842963 66103,6917.871,95.437,541.265,538.207,0.0
53537.0,STARLINK-4120,PAYLOAD,2023-10-30 09:49:25,15.08848456,0.0001646,53.217,340.5334,88.5667,271.5514,0.00054295,8.366e-05,0.0,0 STARLINK-4120,1 53537U 22101L   23303.40932526  .00008366  00000-0  54295-3 0  9992,2 53537  53.2170 340.5334 0001646  88.5667 271.5514 15.08848456 66143,6917.855,95.437,540.858,538.581,0.0
53537.0,STARLINK-4120,PAYLOAD,2023-10-31 11:15:36,15.08836482,0.0001834,53.2183,335.7767,90.2706,269.8496,6.7155e-05,7.81e-06,0.0,0 STARLINK-4120,1 53537U 22101L   23304.46917415  .00000781  00000-0  67155-4 0  9992,2 53537  53.2183 335.7767 0001834  90.2706 269.8496 15.08836482 66309,6917.891,95.438,541.025,538.487,0.0
53537.0,STARLINK-4120,PAYLOAD,2023-10-31 19:12:32,15.08837248,0.0001836,53.2182,334.29,88.8931,271.2272,8.6186e-05,1.084e-05,0.0,0 STARLINK-4120,1 53537U 22101L   23304.80037549  .00001084  00000-0  86186-4 0  9993,2 53537  53.2182 334.2900 0001836  88.8931 271.2272 15.08837248 66351,6917.889,95.438,541.024,538.484,0.0
53537.0,STARLINK-4120,PAYLOAD,2023-11-01 11:06:23,15.08851841,0.0001748,53.2163,331.3147,88.9299,271.1893,0.00051725,7.956e-05,0.0,0 STARLINK-4120,1 53537U 22101L   23305.46277263  .00007956  00000-0  51725-3 0  9999,2 53537  53.2163 331.3147 0001748  88.9299 271.1893 15.08851841 66455,6917.844,95.437,540.918,538.5,0.0
53537.0,STARLINK-4120,PAYLOAD,2023-11-01 19:03:19,15.08841791,0.0002336,53.2171,329.8273,90.1824,269.9435,0.00022634,3.316e-05,0.0,0 STARLINK-4120,1 53537U 22101L   23305.79397672  .00003316  00000-0  22634-3 0  9995,2 53537  53.2171 329.8273 0002336  90.1824 269.9435 15.08841791 66505,6917.875,95.437,541.356,538.124,0.0
53537.0,STARLINK-4120,PAYLOAD,2023-11-02 10:57:10,15.0885596,0.0001736,53.2167,326.8534,97.4716,262.6474,0.00046581,7.136e-05,0.0,0 STARLINK-4120,1 53537U 22101L   23306.45636968  .00007136  00000-0  46581-3 0  9994,2 53537  53.2167 326.8534 0001736  97.4716 262.6474 15.08855960 66607,6917.832,95.437,540.898,538.496,0.0
53537.0,STARLINK-4120,PAYLOAD,2023-11-02 18:54:06,15.08842655,0.000163,53.218,325.3667,90.1185,269.9993,7.876e-05,9.66e-06,0.0,0 STARLINK-4120,1 53537U 22101L   23306.78757268  .00000966  00000-0  78760-4 0  9996,2 53537  53.2180 325.3667 0001630  90.1185 269.9993 15.08842655 66654,6917.872,95.437,540.865,538.61,0.0
53537.0,STARLINK-4120,PAYLOAD,2023-11-03 10:47:57,15.08844492,0.0001927,53.2181,322.3908,97.4368,262.6843,0.00034114,5.146e-05,0.0,0 STARLINK-4120,1 53537U 22101L   23307.44997447  .00005146  00000-0  34114-3 0  9994,2 53537  53.2181 322.3908 0001927  97.4368 262.6843 15.08844492 66758,6917.867,95.437,541.065,538.399,0.0
53537.0,STARLINK-4120,PAYLOAD,2023-11-03 18:44:53,15.08836541,0.0001934,53.2183,320.9066,91.1669,268.9545,0.00016789,2.385e-05,0.0,0 STARLINK-4120,1 53537U 22101L   23307.78117917  .00002385  00000-0  16789-3 0  9997,2 53537  53.2183 320.9066 0001934  91.1669 268.9545 15.08836541 66802,6917.891,95.438,541.094,538.418,0.0
53537.0,STARLINK-4120,PAYLOAD,2023-11-04 07:27:58,15.08857947,0.0001702,53.2173,318.528,90.9629,269.1559,0.00085755,0.00013393,0.0,0 STARLINK-4120,1 53537U 22101L   23308.31109557  .00013393  00000-0  85755-3 0  9998,2 53537  53.2173 318.5280 0001702  90.9629 269.1559 15.08857947 66887,6917.826,95.436,540.868,538.513,0.0
53537.0,STARLINK-4120,PAYLOAD,2023-11-05 04:07:59,15.08854352,0.0001701,53.218,314.6599,94.9493,265.1693,0.0011682,0.0001836,0.0,0 STARLINK-4120,1 53537U 22101L   23309.17221633  .00018360  00000-0  11682-2 0  9999,2 53537  53.2180 314.6599 0001701  94.9493 265.1693 15.08854352 67015,6917.837,95.437,540.878,538.525,0.0
53537.0,STARLINK-4120,PAYLOAD,2023-11-05 07:18:45,15.08857817,0.0001851,53.2181,314.0636,96.2029,263.9174,0.00069162,0.00010742,0.0,0 STARLINK-4120,1 53537U 22101L   23309.30469393  .00010742  00000-0  69162-3 0  9994,2 53537  53.2181 314.0636 0001851  96.2029 263.9174 15.08857817 67039,6917.826,95.436,540.971,538.41,0.0
53537.0,STARLINK-4120,PAYLOAD,2023-11-05 23:12:36,15.08854932,0.0001808,53.2172,311.0943,99.6696,260.45,0.00060444,9.349e-05,0.0,0 STARLINK-4120,1 53537U 22101L   23309.96709289  .00009349  00000-0  60444-3 0  9992,2 53537  53.2172 311.0943 0001808  99.6696 260.4500 15.08854932 67137,6917.835,95.437,540.95,538.449,0.0
53537.0,STARLINK-4120,PAYLOAD,2023-11-06 00:47:59,15.08851232,0.0001854,53.218,310.7964,98.9337,261.1865,0.00031737,4.768e-05,0.0,0 STARLINK-4120,1 53537U 22101L   23310.03333287  .00004768  00000-0  31737-3 0  9996,2 53537  53.2180 310.7964 0001854  98.9337 261.1865 15.08851232 67143,6917.846,95.437,540.994,538.428,0.0
53537.0,STARLINK-4120,PAYLOAD,2023-11-06 07:09:31,15.08871512,0.0001855,53.2179,309.6064,96.5654,263.555,0.0008844,0.00013827,0.0,0 STARLINK-4120,1 53537U 22101L   23310.29828668  .00013827  00000-0  88440-3 0  9995,2 53537  53.2179 309.6064 0001855  96.5654 263.5550 15.08871512 67180,6917.784,95.436,540.932,538.366,0.0
53537.0,STARLINK-4120,PAYLOAD,2023-11-07 03:49:35,15.08780101,0.0001369,53.2173,305.7409,84.965,275.1498,-0.0011127,-0.00017924,0.0,0 STARLINK-4120,1 53537U 22101L   23311.15943332 -.00017924  00000-0 -11127-2 0  9998,2 53537  53.2173 305.7409 0001369  84.9650 275.1498 15.08780101 67319,6918.063,95.441,540.876,538.981,0.0
53537.0,STARLINK-4120,PAYLOAD,2023-11-07 08:35:45,15.08785612,0.0001341,53.218,304.8506,89.6593,270.4552,-0.00043872,-7.253e-05,0.0,0 STARLINK-4120,1 53537U 22101L   23311.35816062 -.00007253  00000-0 -43872-3 0  9996,2 53537  53.2180 304.8506 0001341  89.6593 270.4552 15.08785612 67347,6918.047,95.441,540.839,538.984,0.0
53537.0,STARLINK-4120,PAYLOAD,2023-11-07 16:32:41,15.08802346,0.0001429,53.217,303.3643,108.5704,251.5444,0.00078531,0.00012219,0.0,0 STARLINK-4120,1 53537U 22101L   23311.68936877  .00012219  00000-0  78531-3 0  9995,2 53537  53.2170 303.3643 0001429 108.5704 251.5444 15.08802346 67393,6917.995,95.44,540.849,538.872,0.0
53537.0,STARLINK-4120,PAYLOAD,2023-11-08 03:40:23,15.08845136,9.76e-05,53.2169,301.2805,98.359,261.7513,0.0016042,0.00025339,0.0,0 STARLINK-4120,1 53537U 22101L   23312.15304638  .00025339  00000-0  16042-2 0  9997,2 53537  53.2169 301.2805 0000976  98.3590 261.7513 15.08845136 67465,6917.865,95.437,540.405,539.055,0.0
53537.0,STARLINK-4120,PAYLOAD,2023-11-08 08:26:32,15.08875502,0.0001268,53.2166,300.3897,91.4839,268.6298,0.001366,0.0002154,0.0,0 STARLINK-4120,1 53537U 22101L   23312.35176005  .00021540  00000-0  13660-2 0  9997,2 53537  53.2166 300.3897 0001268  91.4839 268.6298 15.08875502 67497,6917.772,95.435,540.514,538.76,0.0
53537.0,STARLINK-4120,PAYLOAD,2023-11-09 03:31:08,15.08876321,0.0001974,53.2166,296.822,144.9753,215.1369,0.00076085,0.00011854,0.0,0 STARLINK-4120,1 53537U 22101L   23313.14662404  .00011854  00000-0  76085-3 0  9996,2 53537  53.2166 296.8220 0001974 144.9753 215.1369 15.08876321 67619,6917.769,95.435,541.0,538.269,0.0
53537.0,STARLINK-4120,PAYLOAD,2023-11-09 06:41:54,15.08875855,0.0001198,53.2162,296.2293,87.3828,272.7302,0.00088331,0.00013812,0.0,0 STARLINK-4120,1 53537U 22101L   23313.27910526  .00013812  00000-0  88331-3 0  9994,2 53537  53.2162 296.2293 0001198  87.3828 272.7302 15.08875855 67639,6917.771,95.435,540.465,538.807,0.0
53537.0,STARLINK-4120,PAYLOAD,2023-11-09 16:14:13,15.08861814,0.0001363,53.2164,294.4425,89.9334,270.1814,0.00027131,4.035e-05,0.0,0 STARLINK-4120,1 53537U 22101L   23313.67654195  .00004035  00000-0  27131-3 0  9993,2 53537  53.2164 294.4425 0001363  89.9334 270.1814 15.08861814 67698,6917.814,95.436,540.622,538.736,0.0
53537.0,STARLINK-4120,PAYLOAD,2023-11-10 04:57:18,15.08847437,0.0001327,53.217,292.0614,98.2813,261.833,0.00056442,8.708e-05,0.0,0 STARLINK-4120,1 53537U 22101L   23314.20646277  .00008708  00000-0  56442-3 0  9993,2 53537  53.2170 292.0614 0001327  98.2813 261.8330 15.08847437 67778,6917.858,95.437,540.641,538.805,0.0
53537.0,STARLINK-4120,PAYLOAD,2023-11-10 08:08:04,15.08851348,0.0001656,53.2164,291.4651,103.8554,256.2622,0.00080735,0.00012588,0.0,0 STARLINK-4120,1 53537U 22101L   23314.33894223  .00012588  00000-0  80735-3 0  9996,2 53537  53.2164 291.4651 0001656 103.8554 256.2622 15.08851348 67795,6917.846,95.437,540.856,538.565,0.0
53537.0,STARLINK-4120,PAYLOAD,2023-11-10 16:05:00,15.08839499,0.0001897,53.2173,289.9793,98.6627,261.458,0.00045208,6.914e-05,0.0,0 STARLINK-4120,1 53537U 22101L   23314.67014736  .00006914  00000-0  45208-3 0  9998,2 53537  53.2173 289.9793 0001897  98.6627 261.4580 15.08839499 67843,6917.882,95.438,541.059,538.435,0.0
53537.0,STARLINK-4120,PAYLOAD,2023-11-11 04:48:05,15.08845666,0.000182,53.2171,287.6005,90.0775,270.0426,0.00045419,6.949e-05,0.0,0 STARLINK-4120,1 53537U 22101L   23315.20006604  .00006949  00000-0  45419-3 0  9995,2 53537  53.2171 287.6005 0001820  90.0775 270.0426 15.08845666 67925,6917.863,95.437,540.987,538.469,0.0
53537.0,STARLINK-4120,PAYLOAD,2023-11-11 22:17:20,15.08844538,0.0002093,53.2176,284.3318,82.1757,277.9472,0.00027594,4.107e-05,0.0,0 STARLINK-4120,1 53537U 22101L   23315.92870734  .00004107  00000-0  27594-3 0  9995,2 53537  53.2176 284.3318 0002093  82.1757 277.9472 15.08844538 68033,6917.867,95.437,541.179,538.284,0.0
